{
  "type": "FeatureCollection",
  "features": [
    {
      "type": "Feature",
      "properties": {
        "norad_id": 66879,
        "name": "STARLINK-35749",
        "group": "last-30-days",
        "lat": 13.347328612942267,
        "lon": 79.5991167214117,
        "alt_km": 294.6432785456609,
        "timestamp": "2025-12-13T15:35:10.878409+00:00",
        "meta_object_name": "STARLINK-35749",
        "meta_object_id": "2025-283B",
        "meta_epoch": "2025-12-12T20:00:01.999872",
        "meta_mean_motion": 15.94183877,
        "meta_eccentricity": 9.7e-05,
        "meta_inclination": 53.1548,
        "meta_ra_of_asc_node": 73.5167,
        "meta_arg_of_pericenter": 58.7168,
        "meta_mean_anomaly": 314.8573,
        "meta_ephemeris_type": 0,
        "meta_classification_type": "U",
        "meta_norad_cat_id": 66879,
        "meta_element_set_no": 999,
        "meta_rev_at_epoch": 244,
        "meta_bstar": -0.0033590592,
        "meta_mean_motion_dot": -0.01278043,
        "meta_mean_motion_ddot": 0.00048812673,
        "tle_line1": "1 66879U 25283B   25346.83335648 -.01278043  48813-3 -33591-2 0  9993",
        "tle_line2": "2 66879  53.1548  73.5167 0000970  58.7168 314.8573 15.94183877  2448"
      },
      "geometry": {
        "type": "Point",
        "coordinates": [
          79.5991167214117,
          13.347328612942267
        ]
      }
    },
    {
      "type": "Feature",
      "properties": {
        "norad_id": 66880,
        "name": "STARLINK-35844",
        "group": "last-30-days",
        "lat": 11.425258585880272,
        "lon": 78.07242088834967,
        "alt_km": 295.08720205250756,
        "timestamp": "2025-12-13T15:35:10.878419+00:00",
        "meta_object_name": "STARLINK-35844",
        "meta_object_id": "2025-283C",
        "meta_epoch": "2025-12-12T20:00:01.999872",
        "meta_mean_motion": 15.94113288,
        "meta_eccentricity": 9.618e-05,
        "meta_inclination": 53.155,
        "meta_ra_of_asc_node": 73.5217,
        "meta_arg_of_pericenter": 59.7367,
        "meta_mean_anomaly": 311.5667,
        "meta_ephemeris_type": 0,
        "meta_classification_type": "U",
        "meta_norad_cat_id": 66880,
        "meta_element_set_no": 999,
        "meta_rev_at_epoch": 244,
        "meta_bstar": -0.0033193997,
        "meta_mean_motion_dot": -0.01258445,
        "meta_mean_motion_ddot": 0.00047425318,
        "tle_line1": "1 66880U 25283C   25346.83335648 -.01258445  47425-3 -33194-2 0  9996",
        "tle_line2": "2 66880  53.1550  73.5217 0000961  59.7367 311.5667 15.94113288  2448"
      },
      "geometry": {
        "type": "Point",
        "coordinates": [
          78.07242088834967,
          11.425258585880272
        ]
      }
    },
    {
      "type": "Feature",
      "properties": {
        "norad_id": 66881,
        "name": "STARLINK-35860",
        "group": "last-30-days",
        "lat": 14.809032839276268,
        "lon": 80.78143475722798,
        "alt_km": 294.3006038494332,
        "timestamp": "2025-12-13T15:35:10.878429+00:00",
        "meta_object_name": "STARLINK-35860",
        "meta_object_id": "2025-283D",
        "meta_epoch": "2025-12-12T20:00:01.999872",
        "meta_mean_motion": 15.94233686,
        "meta_eccentricity": 0.00010737,
        "meta_inclination": 53.1548,
        "meta_ra_of_asc_node": 73.513,
        "meta_arg_of_pericenter": 49.9904,
        "meta_mean_anomaly": 325.3025,
        "meta_ephemeris_type": 0,
        "meta_classification_type": "U",
        "meta_norad_cat_id": 66881,
        "meta_element_set_no": 999,
        "meta_rev_at_epoch": 244,
        "meta_bstar": -0.0033557575,
        "meta_mean_motion_dot": -0.01280167,
        "meta_mean_motion_ddot": 0.00048985117,
        "tle_line1": "1 66881U 25283D   25346.83335648 -.01280167  48985-3 -33558-2 0  9999",
        "tle_line2": "2 66881  53.1548  73.5130 0001073  49.9904 325.3025 15.94233686  2449"
      },
      "geometry": {
        "type": "Point",
        "coordinates": [
          80.78143475722798,
          14.809032839276268
        ]
      }
    },
    {
      "type": "Feature",
      "properties": {
        "norad_id": 66882,
        "name": "STARLINK-35912",
        "group": "last-30-days",
        "lat": 16.49646910533095,
        "lon": 82.17322222086278,
        "alt_km": 293.8621396584749,
        "timestamp": "2025-12-13T15:35:10.878441+00:00",
        "meta_object_name": "STARLINK-35912",
        "meta_object_id": "2025-283E",
        "meta_epoch": "2025-12-12T20:00:01.999872",
        "meta_mean_motion": 15.94286093,
        "meta_eccentricity": 0.00010527,
        "meta_inclination": 53.1549,
        "meta_ra_of_asc_node": 73.5091,
        "meta_arg_of_pericenter": 49.4034,
        "meta_mean_anomaly": 327.8815,
        "meta_ephemeris_type": 0,
        "meta_classification_type": "U",
        "meta_norad_cat_id": 66882,
        "meta_element_set_no": 999,
        "meta_rev_at_epoch": 244,
        "meta_bstar": -0.0033359017,
        "meta_mean_motion_dot": -0.01276195,
        "meta_mean_motion_ddot": 0.00048734213,
        "tle_line1": "1 66882U 25283E   25346.83335648 -.01276195  48734-3 -33359-2 0  9997",
        "tle_line2": "2 66882  53.1549  73.5091 0001052  49.4034 327.8815 15.94286093  2447"
      },
      "geometry": {
        "type": "Point",
        "coordinates": [
          82.17322222086278,
          16.49646910533095
        ]
      }
    },
    {
      "type": "Feature",
      "properties": {
        "norad_id": 66883,
        "name": "STARLINK-35947",
        "group": "last-30-days",
        "lat": 18.301666778380763,
        "lon": 83.69824175695045,
        "alt_km": 293.42655174601896,
        "timestamp": "2025-12-13T15:35:10.878451+00:00",
        "meta_object_name": "STARLINK-35947",
        "meta_object_id": "2025-283F",
        "meta_epoch": "2025-12-12T20:00:01.999872",
        "meta_mean_motion": 15.94342766,
        "meta_eccentricity": 8.446e-05,
        "meta_inclination": 53.1549,
        "meta_ra_of_asc_node": 73.5048,
        "meta_arg_of_pericenter": 58.598,
        "meta_mean_anomaly": 320.8322,
        "meta_ephemeris_type": 0,
        "meta_classification_type": "U",
        "meta_norad_cat_id": 66883,
        "meta_element_set_no": 999,
        "meta_rev_at_epoch": 249,
        "meta_bstar": -0.0033206373,
        "meta_mean_motion_dot": -0.01274197,
        "meta_mean_motion_ddot": 0.00048622617,
        "tle_line1": "1 66883U 25283F   25346.83335648 -.01274197  48623-3 -33206-2 0  9996",
        "tle_line2": "2 66883  53.1549  73.5048 0000844  58.5980 320.8322 15.94342766  2490"
      },
      "geometry": {
        "type": "Point",
        "coordinates": [
          83.69824175695045,
          18.301666778380763
        ]
      }
    },
    {
      "type": "Feature",
      "properties": {
        "norad_id": 66884,
        "name": "STARLINK-36057",
        "group": "last-30-days",
        "lat": 21.782094695781662,
        "lon": 86.76507573432013,
        "alt_km": 292.54633684853707,
        "timestamp": "2025-12-13T15:35:10.878461+00:00",
        "meta_object_name": "STARLINK-36057",
        "meta_object_id": "2025-283G",
        "meta_epoch": "2025-12-12T20:00:01.999872",
        "meta_mean_motion": 15.94466164,
        "meta_eccentricity": 0.00010453,
        "meta_inclination": 53.1548,
        "meta_ra_of_asc_node": 73.4957,
        "meta_arg_of_pericenter": 52.5592,
        "meta_mean_anomaly": 331.0711,
        "meta_ephemeris_type": 0,
        "meta_classification_type": "U",
        "meta_norad_cat_id": 66884,
        "meta_element_set_no": 999,
        "meta_rev_at_epoch": 244,
        "meta_bstar": -0.0033464343,
        "meta_mean_motion_dot": -0.01292391,
        "meta_mean_motion_ddot": 0.00049956062,
        "tle_line1": "1 66884U 25283G   25346.83335648 -.01292391  49956-3 -33464-2 0  9999",
        "tle_line2": "2 66884  53.1548  73.4957 0001045  52.5592 331.0711 15.94466164  2445"
      },
      "geometry": {
        "type": "Point",
        "coordinates": [
          86.76507573432013,
          21.782094695781662
        ]
      }
    },
    {
      "type": "Feature",
      "properties": {
        "norad_id": 66885,
        "name": "STARLINK-35954",
        "group": "last-30-days",
        "lat": 20.054852344048992,
        "lon": 85.22004130043116,
        "alt_km": 292.9127054887949,
        "timestamp": "2025-12-13T15:35:10.878471+00:00",
        "meta_object_name": "STARLINK-35954",
        "meta_object_id": "2025-283H",
        "meta_epoch": "2025-12-12T20:00:01.999872",
        "meta_mean_motion": 15.94406474,
        "meta_eccentricity": 0.00011379,
        "meta_inclination": 53.1546,
        "meta_ra_of_asc_node": 73.5,
        "meta_arg_of_pericenter": 53.6867,
        "meta_mean_anomaly": 327.8441,
        "meta_ephemeris_type": 0,
        "meta_classification_type": "U",
        "meta_norad_cat_id": 66885,
        "meta_element_set_no": 999,
        "meta_rev_at_epoch": 244,
        "meta_bstar": -0.0033284986,
        "meta_mean_motion_dot": -0.01281516,
        "meta_mean_motion_ddot": 0.0004916383,
        "tle_line1": "1 66885U 25283H   25346.83335648 -.01281516  49164-3 -33285-2 0  9999",
        "tle_line2": "2 66885  53.1546  73.5000 0001137  53.6867 327.8441 15.94406474  2444"
      },
      "geometry": {
        "type": "Point",
        "coordinates": [
          85.22004130043116,
          20.054852344048992
        ]
      }
    }
  ]
}